{
  "norad_id": 57605,
  "name": "STARLINK-30138",
  "history": [
    {
      "epoch": "2026-03-28T22:50:58.394400Z",
      "apogee_km": 487.16445987257885,
      "perigee_km": 483.92891938129014,
      "latitude_deg": 4.359721667310703e-05,
      "longitude_deg": 163.57450270033462,
      "height_km": 485.36327083711126,
      "semi_major_axis_km": 6863.683689626934,
      "eccentricity": 0.0002357,
      "inclination_deg": 43.0055,
      "raan_deg": 332.6829,
      "arg_perigee_deg": 268.6376,
      "mean_anomaly_deg": 91.4206,
      "mean_motion_rev_day": 15.2674628
    },
    {
      "epoch": "2026-03-29T23:58:17.837184Z",
      "apogee_km": 486.7502380180331,
      "perigee_km": 484.38116239402916,
      "latitude_deg": 2.227522199974827e-05,
      "longitude_deg": 139.80804220858073,
      "height_km": 485.3827618456972,
      "semi_major_axis_km": 6863.70270020603,
      "eccentricity": 0.00017258,
      "inclination_deg": 43.0022,
      "raan_deg": 326.7792,
      "arg_perigee_deg": 268.0756,
      "mean_anomaly_deg": 91.9898,
      "mean_motion_rev_day": 15.26739937
    }
  ]
}